JCSAT-13                
1 38331U 12023A   26063.03892049 -.00000369  00000+0  00000+0 0  9995
2 38331   0.0376 269.7147 0002155 116.0153 274.0708  1.00272694 50488
VINASAT-2               
1 38332U 12023B   26063.04013381 -.00000342  00000+0  00000+0 0  9992
2 38332   0.0525 299.6788 0002924  61.2086 307.1774  1.00270786 45607
NIMIQ 6                 
1 38342U 12026A   26063.18586576 -.00000186  00000+0  00000+0 0  9998
2 38342   0.0559 279.8394 0002627  59.1089 158.7873  1.00270974 49363
ZHONGXING-2A            
1 38352U 12028A   26063.03380712 -.00000305  00000+0  00000+0 0  9992
2 38352   1.1825  85.3663 0001256 229.8926 316.9471  1.00272834 50242
INTELSAT 19 (IS-19)     
1 38356U 12030A   26063.11839419  .00000000  00000+0  00000+0 0  9992
2 38356   0.0252 149.9211 0003140 210.3532  10.2383  1.00270085 49392
ECHOSTAR 17             
1 38551U 12035A   26063.13581425 -.00000088  00000+0  00000+0 0  9994
2 38551   0.0190 132.6817 0002033 211.4045 119.5824  1.00272005 50010
METEOSAT-10 (MSG-3)     
1 38552U 12035B   26063.15704770 -.00000014  00000+0  00000+0 0  9996
2 38552   4.4231  61.4646 0002500 294.6092 222.6503  1.00277354 49805
SES-5                   
1 38652U 12036A   26063.15800102  .00000021  00000+0  00000+0 0  9991
2 38652   0.0603 310.7900 0002021  27.8584 245.1093  1.00271928 43409
INTELSAT 20 (IS-20)     
1 38740U 12043A   26063.09924076 -.00000037  00000+0  00000+0 0  9995
2 38740   0.0202 133.9927 0002530  32.1653  99.9085  1.00270989 49696
HYLAS 2                 
1 38741U 12043B   26063.15600580 -.00000269  00000+0  00000+0 0  9991
2 38741   2.1563  82.3894 0002665 281.1655 141.9392  1.00270653 49728
INTELSAT 21 (IS-21)     
1 38749U 12045A   26063.15044814 -.00000297  00000+0  00000+0 0  9994
2 38749   0.0358 264.1524 0001780  84.9537 168.9512  1.00270810 49470
ASTRA 2F                
1 38778U 12051A   26062.80599522  .00000136  00000+0  00000+0 0  9996
2 38778   0.0742 258.5205 0002576  16.5698 204.8076  1.00273947 40082
GSAT-10                 
1 38779U 12051B   26062.45600324 -.00000179  00000+0  00000+0 0  9999
2 38779   0.0759 263.9438 0004157 175.5434 328.8469  1.00273302 49032
INTELSAT 23 (IS-23)     
1 38867U 12057A   26063.08030776 -.00000297  00000+0  00000+0 0  9992
2 38867   0.0547 264.5999 0001197  73.1512 159.9952  1.00272582 48909
BEIDOU-2 G6             
1 38953U 12059A   26063.10227411 -.00000185  00000+0  00000+0 0  9993
2 38953   4.1554  74.6500 0010672 304.2337 263.7683  1.00269514 48857
LUCH-5B                 
1 38977U 12061A   26062.90224160 -.00000146  00000+0  00000+0 0  9994
2 38977  10.2575  50.9099 0004391 223.3648 195.8772  1.00271596 48555
YAMAL 300K              
1 38978U 12061B   26063.21364103  .00000059  00000+0  00000+0 0  9994
2 38978   0.0094 177.2875 0000663  81.8282 162.6950  1.00272190 48576
